{"type": "FeatureCollection", "features": [ {"type": "Feature", "properties": {"norad_id": 39620, "name": "COSMOS 2492 (754)", "group": "gnss", "lat": 16.44411704834755, "lon": 132.18300096614723, "alt_km": 19159.943914118136, "timestamp": "2025-12-21T16:47:54.980234+00:00", "meta": {"OBJECT_NAME": "COSMOS 2492 (754)", "OBJECT_ID": "2014-012A", "EPOCH": "2025-12-21T00:28:06.027744", "MEAN_MOTION": 2.13103414, "ECCENTRICITY": 0.0014234, "INCLINATION": 65.403, "RA_OF_ASC_NODE": 319.9894, "ARG_OF_PERICENTER": 312.8453, "MEAN_ANOMALY": 47.0277, "EPHEMERIS_TYPE": 0, "CLASSIFICATION_TYPE": "U", "NORAD_CAT_ID": 39620, "ELEMENT_SET_NO": 999, "REV_AT_EPOCH": 9144, "BSTAR": 0, "MEAN_MOTION_DOT": -4.8e-07, "MEAN_MOTION_DDOT": 0}, "tle": {"line1": "1 39620U 14012A   25355.01951421 -.00000048  00000+0  00000+0 0  9992", "line2": "2 39620  65.4030 319.9894 0014234 312.8453  47.0277  2.13103414 91447"}}, "geometry": {"type": "Point", "coordinates": [132.18300096614723, 16.44411704834755]}}, {"type": "Feature", "properties": {"norad_id": 39635, "name": "IRNSS-1B", "group": "gnss", "lat": 12.337673922095028, "lon": 40.53745665307036, "alt_km": 35791.69029888824, "timestamp": "2025-12-21T16:47:54.980245+00:00", "meta": {"OBJECT_NAME": "IRNSS-1B", "OBJECT_ID": "2014-017A", "EPOCH": "2025-12-20T18:37:43.503744", "MEAN_MOTION": 1.00271109, "ECCENTRICITY": 0.00186822, "INCLINATION": 29.2525, "RA_OF_ASC_NODE": 243.4669, "ARG_OF_PERICENTER": 249.4131, "MEAN_ANOMALY": 291.5281, "EPHEMERIS_TYPE": 0, "CLASSIFICATION_TYPE": "U", "NORAD_CAT_ID": 39635, "ELEMENT_SET_NO": 999, "REV_AT_EPOCH": 4300, "BSTAR": 0, "MEAN_MOTION_DOT": 1.52e-06, "MEAN_MOTION_DDOT": 0}, "tle": {"line1": "1 39635U 14017A   25354.77619796  .00000152  00000+0  00000+0 0  9996", "line2": "2 39635  29.2525 243.4669 0018682 249.4131 291.5281  1.00271109 43002"}}, "geometry": {"type": "Point", "coordinates": [40.53745665307036, 12.337673922095028]}}, {"type": "Feature", "properties": {"norad_id": 39727, "name": "LUCH 5V (SDCM/PRN 141)", "group": "gnss", "lat": 0.49213752246145903, "lon": 77.1921753545372, "alt_km": 35798.87397865804, "timestamp": "2025-12-21T16:47:54.980257+00:00", "meta": {"OBJECT_NAME": "LUCH 5V (SDCM/PRN 141)", "OBJECT_ID": "2014-023A", "EPOCH": "2025-12-21T12:28:51.528576", "MEAN_MOTION": 1.00275874, "ECCENTRICITY": 0.00037, "INCLINATION": 4.6909, "RA_OF_ASC_NODE": 71.4668, "ARG_OF_PERICENTER": 212.8079, "MEAN_ANOMALY": 87.9784, "EPHEMERIS_TYPE": 0, "CLASSIFICATION_TYPE": "U", "NORAD_CAT_ID": 39727, "ELEMENT_SET_NO": 999, "REV_AT_EPOCH": 4257, "BSTAR": 0, "MEAN_MOTION_DOT": -2.5e-06, "MEAN_MOTION_DDOT": 0}, "tle": {"line1": "1 39727U 14023A   25355.52004084 -.00000250  00000+0  00000+0 0  9997", "line2": "2 39727   4.6909  71.4668 0003700 212.8079  87.9784  1.00275874 42574"}}, "geometry": {"type": "Point", "coordinates": [77.1921753545372, 0.49213752246145903]}}, {"type": "Feature", "properties": {"norad_id": 39741, "name": "GPS BIIF-6  (PRN 06)", "group": "gnss", "lat": 11.090671055005563, "lon": 150.97858201524454, "alt_km": 20273.85238160074, "timestamp": "2025-12-21T16:47:54.980268+00:00", "meta": {"OBJECT_NAME": "GPS BIIF-6  (PRN 06)", "OBJECT_ID": "2014-026A", "EPOCH": "2025-12-18T23:24:45.525888", "MEAN_MOTION": 2.00561009, "ECCENTRICITY": 0.00393411, "INCLINATION": 56.5812, "RA_OF_ASC_NODE": 338.5339, "ARG_OF_PERICENTER": 319.0443, "MEAN_ANOMALY": 40.6665, "EPHEMERIS_TYPE": 0, "CLASSIFICATION_TYPE": "U", "NORAD_CAT_ID": 39741, "ELEMENT_SET_NO": 999, "REV_AT_EPOCH": 8492, "BSTAR": 0, "MEAN_MOTION_DOT": -8.1e-07, "MEAN_MOTION_DDOT": 0}, "tle": {"line1": "1 39741U 14026A   25352.97552692 -.00000081  00000+0  00000+0 0  9997", "line2": "2 39741  56.5812 338.5339 0039341 319.0443  40.6665  2.00561009 84924"}}, "geometry": {"type": "Point", "coordinates": [150.97858201524454, 11.090671055005563]}}, {"type": "Feature", "properties": {"norad_id": 40001, "name": "COSMOS 2500 (755)", "group": "gnss", "lat": 26.97539959630559, "lon": -26.774186914088755, "alt_km": 19145.964358779238, "timestamp": "2025-12-21T16:47:54.980279+00:00", "meta": {"OBJECT_NAME": "COSMOS 2500 (755)", "OBJECT_ID": "2014-032A", "EPOCH": "2025-12-21T04:35:55.026240", "MEAN_MOTION": 2.13106227, "ECCENTRICITY": 0.000773, "INCLINATION": 65.3386, "RA_OF_ASC_NODE": 319.7453, "ARG_OF_PERICENTER": 219.3736, "MEAN_ANOMALY": 140.5635, "EPHEMERIS_TYPE": 0, "CLASSIFICATION_TYPE": "U", "NORAD_CAT_ID": 40001, "ELEMENT_SET_NO": 999, "REV_AT_EPOCH": 8966, "BSTAR": 0, "MEAN_MOTION_DOT": -4.7e-07, "MEAN_MOTION_DDOT": 0}, "tle": {"line1": "1 40001U 14032A   25355.19160910 -.00000047  00000+0  00000+0 0  9992", "line2": "2 40001  65.3386 319.7453 0007730 219.3736 140.5635  2.13106227 89665"}}, "geometry": {"type": "Point", "coordinates": [-26.774186914088755, 26.97539959630559]}}, {"type": "Feature", "properties": {"norad_id": 40105, "name": "GPS BIIF-7  (PRN 09)", "group": "gnss", "lat": 52.67355379741993, "lon": -149.8967911568486, "alt_km": 20092.22919008803, "timestamp": "2025-12-21T16:47:54.980292+00:00", "meta": {"OBJECT_NAME": "GPS BIIF-7  (PRN 09)", "OBJECT_ID": "2014-045A", "EPOCH": "2025-12-21T01:21:54.489888", "MEAN_MOTION": 2.00573117, "ECCENTRICITY": 0.0032455, "INCLINATION": 55.2339, "RA_OF_ASC_NODE": 95.5671, "ARG_OF_PERICENTER": 120.1188, "MEAN_ANOMALY": 240.1998, "EPHEMERIS_TYPE": 0, "CLASSIFICATION_TYPE": "U", "NORAD_CAT_ID": 40105, "ELEMENT_SET_NO": 999, "REV_AT_EPOCH": 8250, "BSTAR": 0, "MEAN_MOTION_DOT": -1.2e-07, "MEAN_MOTION_DDOT": 0}, "tle": {"line1": "1 40105U 14045A   25355.05688067 -.00000012  00000+0  00000+0 0  9996", "line2": "2 40105  55.2339  95.5671 0032455 120.1188 240.1998  2.00573117 82506"}}, "geometry": {"type": "Point", "coordinates": [-149.8967911568486, 52.67355379741993]}}, {"type": "Feature", "properties": {"norad_id": 40128, "name": "GSAT0201 (GALILEO 5)", "group": "gnss", "lat": 48.61313291006418, "lon": 0.1835054579403111, "alt_km": 20791.523623266505, "timestamp": "2025-12-21T16:47:54.980305+00:00", "meta": {"OBJECT_NAME": "GSAT0201 (GALILEO 5)", "OBJECT_ID": "2014-050A", "EPOCH": "2025-12-21T00:18:08.005824", "MEAN_MOTION": 1.85519694, "ECCENTRICITY": 0.16487459, "INCLINATION": 49.0672, "RA_OF_ASC_NODE": 280.7264, "ARG_OF_PERICENTER": 172.5923, "MEAN_ANOMALY": 190.2386, "EPHEMERIS_TYPE": 0, "CLASSIFICATION_TYPE": "U", "NORAD_CAT_ID": 40128, "ELEMENT_SET_NO": 999, "REV_AT_EPOCH": 7501, "BSTAR": 0, "MEAN_MOTION_DOT": -4.1e-07, "MEAN_MOTION_DDOT": 0}, "tle": {"line1": "1 40128U 14050A   25355.01259266 -.00000041  00000+0  00000+0 0  9990", "line2": "2 40128  49.0672 280.7264 1648745 172.5923 190.2386  1.85519694 75018"}}, "geometry": {"type": "Point", "coordinates": [0.1835054579403111, 48.61313291006418]}}, {"type": "Feature", "properties": {"norad_id": 40129, "name": "GSAT0202 (GALILEO 6)", "group": "gnss", "lat": -37.87301159328143, "lon": -122.56319472910238, "alt_km": 24250.589459551622, "timestamp": "2025-12-21T16:47:54.980317+00:00", "meta": {"OBJECT_NAME": "GSAT0202 (GALILEO 6)", "OBJECT_ID": "2014-050B", "EPOCH": "2025-12-18T13:46:22.484640", "MEAN_MOTION": 1.85520466, "ECCENTRICITY": 0.16491259, "INCLINATION": 49.0858, "RA_OF_ASC_NODE": 279.9095, "ARG_OF_PERICENTER": 173.2442, "MEAN_ANOMALY": 189.3393, "EPHEMERIS_TYPE": 0, "CLASSIFICATION_TYPE": "U", "NORAD_CAT_ID": 40129, "ELEMENT_SET_NO": 999, "REV_AT_EPOCH": 7713, "BSTAR": 0, "MEAN_MOTION_DOT": -5.9e-07, "MEAN_MOTION_DDOT": 0}, "tle": {"line1": "1 40129U 14050B   25352.57387135 -.00000059  00000+0  00000+0 0  9995", "line2": "2 40129  49.0858 279.9095 1649125 173.2442 189.3393  1.85520466 77135"}}, "geometry": {"type": "Point", "coordinates": [-122.56319472910238, -37.87301159328143]}}, {"type": "Feature", "properties": {"norad_id": 40269, "name": "IRNSS-1C", "group": "gnss", "lat": -2.7330677124729204, "lon": 65.5189714687481, "alt_km": 35718.409915679294, "timestamp": "2025-12-21T16:47:54.980328+00:00", "meta": {"OBJECT_NAME": "IRNSS-1C", "OBJECT_ID": "2014-061A", "EPOCH": "2025-12-21T08:27:19.126944", "MEAN_MOTION": 1.00273843, "ECCENTRICITY": 0.0018057, "INCLINATION": 6.0636, "RA_OF_ASC_NODE": 92.4493, "ARG_OF_PERICENTER": 1.1608, "MEAN_ANOMALY": 206.3842, "EPHEMERIS_TYPE": 0, "CLASSIFICATION_TYPE": "U", "NORAD_CAT_ID": 40269, "ELEMENT_SET_NO": 999, "REV_AT_EPOCH": 4090, "BSTAR": 0, "MEAN_MOTION_DOT": -1.44e-06, "MEAN_MOTION_DDOT": 0}, "tle": {"line1": "1 40269U 14061A   25355.35230471 -.00000144  00000+0  00000+0 0  9996", "line2": "2 40269   6.0636  92.4493 0018057   1.1608 206.3842  1.00273843 40908"}}, "geometry": {"type": "Point", "coordinates": [65.5189714687481, -2.7330677124729204]}}, {"type": "Feature", "properties": {"norad_id": 40294, "name": "GPS BIIF-8  (PRN 03)", "group": "gnss", "lat": -11.27567427442109, "lon": -134.701582643264, "alt_km": 20274.804276393752, "timestamp": "2025-12-21T16:47:54.980339+00:00", "meta": {"OBJECT_NAME": "GPS BIIF-8  (PRN 03)", "OBJECT_ID": "2014-068A", "EPOCH": "2025-12-21T10:24:33.832224", "MEAN_MOTION": 2.00565456, "ECCENTRICITY": 0.0060815, "INCLINATION": 56.8641, "RA_OF_ASC_NODE": 37.8098, "ARG_OF_PERICENTER": 69.0115, "MEAN_ANOMALY": 291.7086, "EPHEMERIS_TYPE": 0, "CLASSIFICATION_TYPE": "U", "NORAD_CAT_ID": 40294, "ELEMENT_SET_NO": 999, "REV_AT_EPOCH": 8164, "BSTAR": 0, "MEAN_MOTION_DOT": -5.2e-07, "MEAN_MOTION_DDOT": 0}, "tle": {"line1": "1 40294U 14068A   25355.43372491 -.00000052  00000+0  00000+0 0  9997", "line2": "2 40294  56.8641  37.8098 0060815  69.0115 291.7086  2.00565456 81643"}}, "geometry": {"type": "Point", "coordinates": [-134.701582643264, -11.27567427442109]}}]}